COSMOS 1933             
1 18958U 88020A   25361.39473154  .00005001  00000+0  24991-3 0  9995
2 18958  82.5135 322.3975 0006494  89.6343 270.5635 15.17232551 39264
SL-3 R/B                
1 19046U 88032B   25361.48754255  .00006146  00000+0  29491-3 0  9992
2 19046  97.5098 340.1084 0028096 123.2506 237.1427 15.18891405 41142
SL-16 R/B               
1 19120U 88039B   25361.05110398 -.00000097  00000+0 -22966-4 0  9991
2 19120  71.0125 222.1390 0019538  91.7838 268.5525 14.19599716948075
COSMOS 1953             
1 19210U 88050A   25351.75027580  .00004793  00000+0  17925-3 0  9993
2 19210  82.5093 240.5536 0013540  56.0210 304.2313 15.26995692 25270
SL-8 R/B                
1 19257U 88053B   25361.15105006  .00000295  00000+0  10402-3 0  9998
2 19257  74.0465 246.1600 0018974  84.8601  28.6223 14.38868091966166
COSMOS 1975             
1 19573U 88093A   25361.26706334  .00008497  00000+0  32183-3 0  9998
2 19573  82.5196 190.2831 0012927  67.3827 292.8777 15.26677847  8357
SL-14 R/B               
1 19574U 88093B   25361.24796228  .00000674  00000+0  75003-4 0  9996
2 19574  82.5318 110.0530 0019225 278.4280  95.6432 14.85565229990289
SL-16 R/B               
1 19650U 88102B   25361.29193422  .00000009  00000+0  28451-4 0  9991
2 19650  71.0008 303.8237 0012193 126.9333 233.2909 14.16142680916645
INTERCOSMOS 24          
1 20261U 89080A   25361.20311338  .00000804  00000+0  22740-3 0  9993
2 20261  82.6057 151.5500 1189024 100.9836 272.7052 12.59462916657671
SL-14 R/B               
1 20262U 89080C   25361.06518914  .00000358  00000+0  10492-3 0  9992
2 20262  82.5913 219.8240 1230367 350.8528   7.1852 12.50424383651075
DELTA 1 R/B             
1 20323U 89089B   25361.47028634  .00000422  00000+0  11334-3 0  9997
2 20323  97.0742 215.3726 0068923 352.1002   7.9105 14.50584334885266
ARIANE 40 R/B           
1 20443U 90005H   25361.19402398  .00000340  00000+0  12187-3 0  9998
2 20443  98.3225  58.9623 0011119  66.6006 293.6351 14.39809163882375
